{"type": "FeatureCollection", "features": [{"type": "Feature", "properties": {"name": "Tropic of Cancer"}, "geometry": {"type": "LineString", "coordinates": [[-180, 23.4364], [-150, 23.4364], [-120, 23.4364], [-90, 23.4364], [-60, 23.4364], [-30, 23.4364], [0, 23.4364], [30, 23.4364], [60, 23.4364], [90, 23.4364], [120, 23.4364], [150, 23.4364], [180, 23.4364]]}}, {"type": "Feature", "properties": {"name": "Equator"}, "geometry": {"type": "LineString", "coordinates": [[-180, 0], [-150, 0], [-120, 0], [-90, 0], [-60, 0], [-30, 0], [0, 0], [30, 0], [60, 0], [90, 0], [120, 0], [150, 0], [180, 0]]}}, {"type": "Feature", "properties": {"name": "Tropic of Capricorn"}, "geometry": {"type": "LineString", "coordinates": [[-180, -23.4364], [-150, -23.4364], [-120, -23.4364], [-90, -23.4364], [-60, -23.4364], [-30, -23.4364], [0, -23.4364], [30, -23.4364], [60, -23.4364], [90, -23.4364], [120, -23.4364], [150, -23.4364], [180, -23.4364]]}}, {"type": "Feature", "properties": {"name": "Arctic Circle"}, "geometry": {"type": "LineString", "coordinates": [[-180, 66.5636], [-150, 66.5636], [-120, 66.5636], [-90, 66.5636], [-60, 66.5636], [-30, 66.5636], [0, 66.5636], [30, 66.5636], [60, 66.5636], [90, 66.5636], [120, 66.5636], [150, 66.5636], [180, 66.5636]]}}]}